{
"type": "FeatureCollection",
"name": "Comunidades_Indigenas_CBA",
"crs": { "type": "name", "properties": { "name": "urn:ogc:def:crs:OGC:1.3:CRS84" } },
"features": [
{ "type": "Feature", "properties": { "comunidad_id": 14001, "comunidad_nombre": "Comunidad Ckatacuna", "comunidad_pueblo": "Comechingón", "comunidad_pueblo_referencia": "Comechingón", "provincia_id": 14, "comunidad_provincia": "Córdoba", "departamento_id": 14098, "comunidad_departamento": "Río Cuarto", "localidad_id": 14098170, "comunidad_localidad_censal": null, "comunidad_localidad": "Las Higueras", "comunidad_barrio_paraje": null, "comunidad_zona": "Urbana", "comunidad_latitud": "-33° 0' 0\" S", "comunidad_longitud": "-64° 0' 0\" W", "personeria_juridica_estado": null, "personeria_tipo_inscripcion": null, "personeria_numero_inscripcion": null, "personeria_fecha_inscripcion": null, "personeria_registro_inscripcion": null, "relevamiento_estado": "Culminado", "relevamiento_fecha": "2009-09-06", "relevamiento_resolucion_inai": "Resolución 718/10", "relevamiento_fecha_resolucion": "2010-12-29", "comunidad_latitud_decimales": -33.090413, "comunidad_longitud_decimales": -64.333872 }, "geometry": { "type": "Point", "coordinates": [ -64.333872, -33.090413 ] } },
{ "type": "Feature", "properties": { "comunidad_id": 14002, "comunidad_nombre": "Comunidad Ctalamochita", "comunidad_pueblo": "Comechingón", "comunidad_pueblo_referencia": "Comechingón", "provincia_id": 14, "comunidad_provincia": "Córdoba", "departamento_id": 14042, "comunidad_departamento": "General San Martín", "localidad_id": 14042180, "comunidad_localidad_censal": null, "comunidad_localidad": "Villa Nueva", "comunidad_barrio_paraje": "B° Parque Norte / Los Olmos", "comunidad_zona": "Urbana", "comunidad_latitud": "-32° 0' 0\" S", "comunidad_longitud": "-63° 0' 0\" W", "personeria_juridica_estado": "Inscripta", "personeria_tipo_inscripcion": "Nacional", "personeria_numero_inscripcion": "Resolución INAI N° 833", "personeria_fecha_inscripcion": "2014-09-17", "personeria_registro_inscripcion": "Registro Nacional de Comunidades Indígenas (Re.Na.C.I.)", "relevamiento_estado": "Culminado", "relevamiento_fecha": "2022-08-20", "relevamiento_resolucion_inai": "Resolución 205/23", "relevamiento_fecha_resolucion": "2023-07-24", "comunidad_latitud_decimales": -32.442624, "comunidad_longitud_decimales": -63.248226 }, "geometry": { "type": "Point", "coordinates": [ -63.248226, -32.442624 ] } },
{ "type": "Feature", "properties": { "comunidad_id": 14003, "comunidad_nombre": "Comunidad Indígena Hijos del Sol Comechingón", "comunidad_pueblo": "Comechingón", "comunidad_pueblo_referencia": "Comechingón", "provincia_id": 14, "comunidad_provincia": "Córdoba", "departamento_id": 14091, "comunidad_departamento": "Punilla", "localidad_id": 14091190, "comunidad_localidad_censal": null, "comunidad_localidad": "San Esteban", "comunidad_barrio_paraje": "Pje. Dolores", "comunidad_zona": "Urbana", "comunidad_latitud": "-31° 0' 0\" S", "comunidad_longitud": "-65° 0' 0\" W", "personeria_juridica_estado": "Inscripta", "personeria_tipo_inscripcion": "Nacional", "personeria_numero_inscripcion": "Resolución INAI N° 088", "personeria_fecha_inscripcion": "2010-03-18", "personeria_registro_inscripcion": "Registro Nacional de Comunidades Indígenas (Re.Na.C.I.)", "relevamiento_estado": "Culminado", "relevamiento_fecha": "2009-09-10", "relevamiento_resolucion_inai": "Resolución 726/10", "relevamiento_fecha_resolucion": "2010-12-29", "comunidad_latitud_decimales": -30.90271, "comunidad_longitud_decimales": -64.530284 }, "geometry": { "type": "Point", "coordinates": [ -64.530284, -30.90271 ] } },
{ "type": "Feature", "properties": { "comunidad_id": 14004, "comunidad_nombre": "Comunidad Aborígen Comechingona La Toma", "comunidad_pueblo": "Comechingón", "comunidad_pueblo_referencia": "Comechingón", "provincia_id": 14, "comunidad_provincia": "Córdoba", "departamento_id": 14014, "comunidad_departamento": "Capital", "localidad_id": 14014010, "comunidad_localidad_censal": null, "comunidad_localidad": "Alto Alberdi", "comunidad_barrio_paraje": null, "comunidad_zona": "Urbana", "comunidad_latitud": "-31° 0' 0\" S", "comunidad_longitud": "-64° 0' 0\" W", "personeria_juridica_estado": "Inscripta", "personeria_tipo_inscripcion": "Nacional", "personeria_numero_inscripcion": "Resolución INAI N° 030", "personeria_fecha_inscripcion": "2010-02-15", "personeria_registro_inscripcion": "Registro Nacional de Comunidades Indígenas (Re.Na.C.I.)", "relevamiento_estado": "Culminado", "relevamiento_fecha": "2009-09-12", "relevamiento_resolucion_inai": "Resolución 722/10", "relevamiento_fecha_resolucion": "2010-12-29", "comunidad_latitud_decimales": -31.403005, "comunidad_longitud_decimales": -64.145705 }, "geometry": { "type": "Point", "coordinates": [ -64.145705, -31.403005 ] } },
{ "type": "Feature", "properties": { "comunidad_id": 14005, "comunidad_nombre": "Comunidad Tacu Kuntur", "comunidad_pueblo": "Comechingón", "comunidad_pueblo_referencia": "Comechingón", "provincia_id": 14, "comunidad_provincia": "Córdoba", "departamento_id": 14028, "comunidad_departamento": "Cruz del Eje", "localidad_id": 14028170, "comunidad_localidad_censal": null, "comunidad_localidad": "San Marcos Sierra", "comunidad_barrio_paraje": null, "comunidad_zona": "Urbana", "comunidad_latitud": "-31° 0' 0\" S", "comunidad_longitud": "-65° 0' 0\" W", "personeria_juridica_estado": "Inscripta", "personeria_tipo_inscripcion": "Nacional", "personeria_numero_inscripcion": "Resolución INAI N° 144", "personeria_fecha_inscripcion": "2009-05-04", "personeria_registro_inscripcion": "Registro Nacional de Comunidades Indígenas (Re.Na.C.I.)", "relevamiento_estado": "Culminado", "relevamiento_fecha": "2009-09-04", "relevamiento_resolucion_inai": "Resolución 720/10", "relevamiento_fecha_resolucion": "2010-12-29", "comunidad_latitud_decimales": -30.787109, "comunidad_longitud_decimales": -64.633249 }, "geometry": { "type": "Point", "coordinates": [ -64.633249, -30.787109 ] } },
{ "type": "Feature", "properties": { "comunidad_id": 14006, "comunidad_nombre": "Comunidad Ticas", "comunidad_pueblo": "Comechingón", "comunidad_pueblo_referencia": "Comechingón", "provincia_id": 14, "comunidad_provincia": "Córdoba", "departamento_id": 14091, "comunidad_departamento": "Punilla", "localidad_id": 14091020, "comunidad_localidad_censal": null, "comunidad_localidad": "Bialet Massé", "comunidad_barrio_paraje": null, "comunidad_zona": "Urbana", "comunidad_latitud": "-31° 0' 0\" S", "comunidad_longitud": "-64° 0' 0\" W", "personeria_juridica_estado": "Inscripta", "personeria_tipo_inscripcion": "Nacional", "personeria_numero_inscripcion": "Resolución INAI N° 111", "personeria_fecha_inscripcion": "2009-04-03", "personeria_registro_inscripcion": "Registro Nacional de Comunidades Indígenas (Re.Na.C.I.)", "relevamiento_estado": "Culminado", "relevamiento_fecha": "2009-09-07", "relevamiento_resolucion_inai": "Resolución 114/12", "relevamiento_fecha_resolucion": "2012-04-13", "comunidad_latitud_decimales": -31.299996, "comunidad_longitud_decimales": -64.466697 }, "geometry": { "type": "Point", "coordinates": [ -64.466697, -31.299996 ] } },
{ "type": "Feature", "properties": { "comunidad_id": 14007, "comunidad_nombre": "Comunidad Indígena Territorial Comechingón Sanavirón Tulián", "comunidad_pueblo": "Comechingón - Sanavirón", "comunidad_pueblo_referencia": "Comechingón", "provincia_id": 14, "comunidad_provincia": "Córdoba", "departamento_id": 14028, "comunidad_departamento": "Cruz del Eje", "localidad_id": 14028170, "comunidad_localidad_censal": null, "comunidad_localidad": "San Marcos Sierra", "comunidad_barrio_paraje": null, "comunidad_zona": "Urbana", "comunidad_latitud": "-31° 0' 0\" S", "comunidad_longitud": "-65° 0' 0\" W", "personeria_juridica_estado": "Inscripta", "personeria_tipo_inscripcion": "Nacional", "personeria_numero_inscripcion": "Resolución INAI N° 64", "personeria_fecha_inscripcion": "2010-03-11", "personeria_registro_inscripcion": "Registro Nacional de Comunidades Indígenas (Re.Na.C.I.)", "relevamiento_estado": "Culminado", "relevamiento_fecha": "2009-09-04", "relevamiento_resolucion_inai": "Resolución 014/12", "relevamiento_fecha_resolucion": "2012-01-30", "comunidad_latitud_decimales": -30.783083, "comunidad_longitud_decimales": -64.638809 }, "geometry": { "type": "Point", "coordinates": [ -64.638809, -30.783083 ] } },
{ "type": "Feature", "properties": { "comunidad_id": 14008, "comunidad_nombre": "Comunidad Kolla Ayllu del Kolla Suyu", "comunidad_pueblo": "Kolla", "comunidad_pueblo_referencia": "Kolla", "provincia_id": 14, "comunidad_provincia": "Córdoba", "departamento_id": 14014, "comunidad_departamento": "Capital", "localidad_id": 14014010, "comunidad_localidad_censal": null, "comunidad_localidad": "Córdoba", "comunidad_barrio_paraje": null, "comunidad_zona": "Urbana", "comunidad_latitud": "-31° 0' 0\" S", "comunidad_longitud": "-64° 0' 0\" W", "personeria_juridica_estado": null, "personeria_tipo_inscripcion": null, "personeria_numero_inscripcion": null, "personeria_fecha_inscripcion": null, "personeria_registro_inscripcion": null, "relevamiento_estado": "Culminado", "relevamiento_fecha": "2022-08-29", "relevamiento_resolucion_inai": "Resolución 199/23", "relevamiento_fecha_resolucion": "2023-07-20", "comunidad_latitud_decimales": -31.411856, "comunidad_longitud_decimales": -64.160536 }, "geometry": { "type": "Point", "coordinates": [ -64.160536, -31.411856 ] } },
{ "type": "Feature", "properties": { "comunidad_id": 14009, "comunidad_nombre": "Comunidad Quisquisacate Curaca Lino Acevedo", "comunidad_pueblo": "Comechingón", "comunidad_pueblo_referencia": "Comechingón", "provincia_id": 14, "comunidad_provincia": "Córdoba", "departamento_id": 14014, "comunidad_departamento": "Capital", "localidad_id": 14014010, "comunidad_localidad_censal": null, "comunidad_localidad": "Córdoba", "comunidad_barrio_paraje": null, "comunidad_zona": "Urbana", "comunidad_latitud": "-31° 0' 0\" S", "comunidad_longitud": "-64° 0' 0\" W", "personeria_juridica_estado": "Inscripta", "personeria_tipo_inscripcion": "Nacional", "personeria_numero_inscripcion": "Resolución INAI N° 837", "personeria_fecha_inscripcion": "2011-11-14", "personeria_registro_inscripcion": "Registro Nacional de Comunidades Indígenas (Re.Na.C.I.)", "relevamiento_estado": "Culminado", "relevamiento_fecha": "2022-08-19", "relevamiento_resolucion_inai": "Resolución 91/23", "relevamiento_fecha_resolucion": "2023-03-29", "comunidad_latitud_decimales": -31.417437, "comunidad_longitud_decimales": -64.23035 }, "geometry": { "type": "Point", "coordinates": [ -64.23035, -31.417437 ] } },
{ "type": "Feature", "properties": { "comunidad_id": 14010, "comunidad_nombre": "Comunidad Ranquelina \"Ramón Cabral\"", "comunidad_pueblo": "Ranquel", "comunidad_pueblo_referencia": "Ranquel", "provincia_id": 14, "comunidad_provincia": "Córdoba", "departamento_id": 14035, "comunidad_departamento": "General Roca", "localidad_id": 14035010, "comunidad_localidad_censal": null, "comunidad_localidad": "Del Campillo", "comunidad_barrio_paraje": null, "comunidad_zona": "Urbana", "comunidad_latitud": "-34° 0' 0\" S", "comunidad_longitud": "-64° 0' 0\" W", "personeria_juridica_estado": "Inscripta", "personeria_tipo_inscripcion": "Nacional", "personeria_numero_inscripcion": "Resolución INAI N° 161", "personeria_fecha_inscripcion": "2014-03-31", "personeria_registro_inscripcion": "Registro Nacional de Comunidades Indígenas (Re.Na.C.I.)", "relevamiento_estado": "Culminado", "relevamiento_fecha": "2022-08-21", "relevamiento_resolucion_inai": "Resolución 204/23", "relevamiento_fecha_resolucion": "2023-07-24", "comunidad_latitud_decimales": -34.375029, "comunidad_longitud_decimales": -64.496704 }, "geometry": { "type": "Point", "coordinates": [ -64.496704, -34.375029 ] } },
{ "type": "Feature", "properties": { "comunidad_id": 14037, "comunidad_nombre": "Comunidad Pluma Blanca", "comunidad_pueblo": "Comechingón", "comunidad_pueblo_referencia": "Comechingón", "provincia_id": 14, "comunidad_provincia": "Córdoba", "departamento_id": 14021, "comunidad_departamento": "Colón", "localidad_id": 14021110, "comunidad_localidad_censal": null, "comunidad_localidad": "El Manzano", "comunidad_barrio_paraje": "Pje. Candonga", "comunidad_zona": "Ambas", "comunidad_latitud": "-31° 0' 0\" S", "comunidad_longitud": "-64° 0' 0\" W", "personeria_juridica_estado": null, "personeria_tipo_inscripcion": null, "personeria_numero_inscripcion": null, "personeria_fecha_inscripcion": null, "personeria_registro_inscripcion": null, "relevamiento_estado": "Culminado", "relevamiento_fecha": "2022-07-10", "relevamiento_resolucion_inai": "Resolución 62/23", "relevamiento_fecha_resolucion": "2023-02-23", "comunidad_latitud_decimales": -31.082365, "comunidad_longitud_decimales": -64.333045 }, "geometry": { "type": "Point", "coordinates": [ -64.333045, -31.082365 ] } },
{ "type": "Feature", "properties": { "comunidad_id": 14038, "comunidad_nombre": "Comunidad Indígena Canchira", "comunidad_pueblo": "Comechingón", "comunidad_pueblo_referencia": "Comechingón", "provincia_id": 14, "comunidad_provincia": "Córdoba", "departamento_id": 14021, "comunidad_departamento": "Colón", "localidad_id": 14021250, "comunidad_localidad_censal": null, "comunidad_localidad": "Salsipuedes", "comunidad_barrio_paraje": "Villa Selva", "comunidad_zona": "Ambas", "comunidad_latitud": "-31° 0' 0\" S", "comunidad_longitud": "-64° 0' 0\" W", "personeria_juridica_estado": null, "personeria_tipo_inscripcion": null, "personeria_numero_inscripcion": null, "personeria_fecha_inscripcion": null, "personeria_registro_inscripcion": null, "relevamiento_estado": "Culminado", "relevamiento_fecha": "2022-07-12", "relevamiento_resolucion_inai": "Resolución 370/23", "relevamiento_fecha_resolucion": "2023-12-06", "comunidad_latitud_decimales": -31.129292, "comunidad_longitud_decimales": -64.318024 }, "geometry": { "type": "Point", "coordinates": [ -64.318024, -31.129292 ] } }
]
}
