{
  "type": "FeatureCollection",
  "name": "grilla_alta_densidad_cba",
  "features": [
    { "type": "Feature", "properties": { "id": 1, "nombre": "Cerro Uritorco" }, "geometry": { "type": "Polygon", "coordinates": [ [ [ -64.55, -30.85 ], [ -64.5, -30.825 ], [ -64.5, -30.775 ], [ -64.55, -30.75 ], [ -64.6, -30.775 ], [ -64.6, -30.825 ], [ -64.55, -30.85 ] ] ] } },
    { "type": "Feature", "properties": { "id": 2, "nombre": "Los Cocos / La Cumbre" }, "geometry": { "type": "Polygon", "coordinates": [ [ [ -64.5, -31.0 ], [ -64.45, -30.975 ], [ -64.45, -30.925 ], [ -64.5, -30.9 ], [ -64.55, -30.925 ], [ -64.55, -30.975 ], [ -64.5, -31.0 ] ] ] } },
    { "type": "Feature", "properties": { "id": 3, "nombre": "La Falda / Huerta Grande" }, "geometry": { "type": "Polygon", "coordinates": [ [ [ -64.5, -31.1 ], [ -64.45, -31.075 ], [ -64.45, -31.025 ], [ -64.5, -31.0 ], [ -64.55, -31.025 ], [ -64.55, -31.075 ], [ -64.5, -31.1 ] ] ] } },
    { "type": "Feature", "properties": { "id": 4, "nombre": "Salsipuedes / Agua de Oro" }, "geometry": { "type": "Polygon", "coordinates": [ [ [ -64.3, -31.1 ], [ -64.25, -31.075 ], [ -64.25, -31.025 ], [ -64.3, -31.0 ], [ -64.35, -31.025 ], [ -64.35, -31.075 ], [ -64.3, -31.1 ] ] ] } },
    { "type": "Feature", "properties": { "id": 5, "nombre": "Reserva La Quebrada" }, "geometry": { "type": "Polygon", "coordinates": [ [ [ -64.4, -31.2 ], [ -64.35, -31.175 ], [ -64.35, -31.125 ], [ -64.4, -31.1 ], [ -64.45, -31.125 ], [ -64.45, -31.175 ], [ -64.4, -31.2 ] ] ] } },
    { "type": "Feature", "properties": { "id": 6, "nombre": "Cosquín / Santa María" }, "geometry": { "type": "Polygon", "coordinates": [ [ [ -64.5, -31.25 ], [ -64.45, -31.225 ], [ -64.45, -31.175 ], [ -64.5, -31.15 ], [ -64.55, -31.175 ], [ -64.55, -31.225 ], [ -64.5, -31.25 ] ] ] } },
    { "type": "Feature", "properties": { "id": 7, "nombre": "Tanti / C. de Punilla" }, "geometry": { "type": "Polygon", "coordinates": [ [ [ -64.6, -31.35 ], [ -64.55, -31.325 ], [ -64.55, -31.275 ], [ -64.6, -31.25 ], [ -64.65, -31.275 ], [ -64.65, -31.325 ], [ -64.6, -31.35 ] ] ] } },
    { "type": "Feature", "properties": { "id": 8, "nombre": "Carlos Paz / San Antonio" }, "geometry": { "type": "Polygon", "coordinates": [ [ [ -64.5, -31.45 ], [ -64.45, -31.425 ], [ -64.45, -31.375 ], [ -64.5, -31.35 ], [ -64.55, -31.375 ], [ -64.55, -31.425 ], [ -64.5, -31.45 ] ] ] } },
    { "type": "Feature", "properties": { "id": 9, "nombre": "Alta Gracia" }, "geometry": { "type": "Polygon", "coordinates": [ [ [ -64.45, -31.65 ], [ -64.4, -31.625 ], [ -64.4, -31.575 ], [ -64.45, -31.55 ], [ -64.5, -31.575 ], [ -64.5, -31.625 ], [ -64.45, -31.65 ] ] ] } },
    { "type": "Feature", "properties": { "id": 10, "nombre": "La Cumbrecita" }, "geometry": { "type": "Polygon", "coordinates": [ [ [ -64.8, -31.9 ], [ -64.75, -31.875 ], [ -64.75, -31.825 ], [ -64.8, -31.8 ], [ -64.85, -31.825 ], [ -64.85, -31.875 ], [ -64.8, -31.9 ] ] ] } },
    { "type": "Feature", "properties": { "id": 11, "nombre": "V. Gral. Belgrano" }, "geometry": { "type": "Polygon", "coordinates": [ [ [ -64.6, -31.95 ], [ -64.55, -31.925 ], [ -64.55, -31.875 ], [ -64.6, -31.85 ], [ -64.65, -31.875 ], [ -64.65, -31.925 ], [ -64.6, -31.95 ] ] ] } },
    { "type": "Feature", "properties": { "id": 12, "nombre": "Embalse / S. Rosa C." }, "geometry": { "type": "Polygon", "coordinates": [ [ [ -64.4, -32.15 ], [ -64.35, -32.125 ], [ -64.35, -32.075 ], [ -64.4, -32.05 ], [ -64.45, -32.075 ], [ -64.45, -32.125 ], [ -64.4, -32.15 ] ] ] } },
    { "type": "Feature", "properties": { "id": 13, "nombre": "Cerro Champaquí" }, "geometry": { "type": "Polygon", "coordinates": [ [ [ -64.95, -32.0 ], [ -64.9, -31.975 ], [ -64.9, -31.925 ], [ -64.95, -31.9 ], [ -65.0, -31.925 ], [ -65.0, -31.975 ], [ -64.95, -32.0 ] ] ] } },
    { "type": "Feature", "properties": { "id": 14, "nombre": "Mina Clavero / Nono" }, "geometry": { "type": "Polygon", "coordinates": [ [ [ -65.0, -31.75 ], [ -64.95, -31.725 ], [ -64.95, -31.675 ], [ -65.0, -31.65 ], [ -65.05, -31.675 ], [ -65.05, -31.725 ], [ -65.0, -31.75 ] ] ] } },
    { "type": "Feature", "properties": { "id": 15, "nombre": "Los Gigantes" }, "geometry": { "type": "Polygon", "coordinates": [ [ [ -64.8, -31.4 ], [ -64.75, -31.375 ], [ -64.75, -31.325 ], [ -64.8, -31.3 ], [ -64.85, -31.325 ], [ -64.85, -31.375 ], [ -64.8, -31.4 ] ] ] } },
    { "type": "Feature", "properties": { "id": 16, "nombre": "Pampa de Achala" }, "geometry": { "type": "Polygon", "coordinates": [ [ [ -64.85, -31.6 ], [ -64.8, -31.575 ], [ -64.8, -31.525 ], [ -64.85, -31.5 ], [ -64.9, -31.525 ], [ -64.9, -31.575 ], [ -64.85, -31.6 ] ] ] } },
    { "type": "Feature", "properties": { "id": 17, "nombre": "Jesús María" }, "geometry": { "type": "Polygon", "coordinates": [ [ [ -64.1, -31.0 ], [ -64.05, -30.975 ], [ -64.05, -30.925 ], [ -64.1, -30.9 ], [ -64.15, -30.925 ], [ -64.15, -30.975 ], [ -64.1, -31.0 ] ] ] } },
    { "type": "Feature", "properties": { "id": 18, "nombre": "Deán Funes" }, "geometry": { "type": "Polygon", "coordinates": [ [ [ -64.35, -30.4 ], [ -64.3, -30.375 ], [ -64.3, -30.325 ], [ -64.35, -30.3 ], [ -64.4, -30.325 ], [ -64.4, -30.375 ], [ -64.35, -30.4 ] ] ] } },
    { "type": "Feature", "properties": { "id": 19, "nombre": "Mar Chiquita (Sur)" }, "geometry": { "type": "Polygon", "coordinates": [ [ [ -62.8, -30.9 ], [ -62.75, -30.875 ], [ -62.75, -30.825 ], [ -62.8, -30.8 ], [ -62.85, -30.825 ], [ -62.85, -30.875 ], [ -62.8, -30.9 ] ] ] } },
    { "type": "Feature", "properties": { "id": 20, "nombre": "San Francisco (Este)" }, "geometry": { "type": "Polygon", "coordinates": [ [ [ -62.1, -31.4 ], [ -62.05, -31.375 ], [ -62.05, -31.325 ], [ -62.1, -31.3 ], [ -62.15, -31.325 ], [ -62.15, -31.375 ], [ -62.1, -31.4 ] ] ] } },
    { "type": "Feature", "properties": { "id": 21, "nombre": "Villa María (Sudeste)" }, "geometry": { "type": "Polygon", "coordinates": [ [ [ -63.2, -32.45 ], [ -63.15, -32.425 ], [ -63.15, -32.375 ], [ -63.2, -32.35 ], [ -63.25, -32.375 ], [ -63.25, -32.425 ], [ -63.2, -32.45 ] ] ] } },
    { "type": "Feature", "properties": { "id": 22, "nombre": "Río Cuarto (Sudoeste)" }, "geometry": { "type": "Polygon", "coordinates": [ [ [ -64.4, -33.2 ], [ -64.35, -33.175 ], [ -64.35, -33.125 ], [ -64.4, -33.1 ], [ -64.45, -33.125 ], [ -64.45, -33.175 ], [ -64.4, -33.2 ] ] ] } },
    { "type": "Feature", "properties": { "id": 23, "nombre": "Laboulaye (Sur)" }, "geometry": { "type": "Polygon", "coordinates": [ [ [ -63.4, -34.1 ], [ -63.35, -34.075 ], [ -63.35, -34.025 ], [ -63.4, -34.0 ], [ -63.45, -34.025 ], [ -63.45, -34.075 ], [ -63.4, -34.1 ] ] ] } },
    { "type": "Feature", "properties": { "id": 24, "nombre": "Cruz del Eje" }, "geometry": { "type": "Polygon", "coordinates": [ [ [ -64.8, -30.7 ], [ -64.75, -30.675 ], [ -64.75, -30.625 ], [ -64.8, -30.6 ], [ -64.85, -30.625 ], [ -64.85, -30.675 ], [ -64.8, -30.7 ] ] ] } },
    { "type": "Feature", "properties": { "id": 25, "nombre": "Villa Dolores" }, "geometry": { "type": "Polygon", "coordinates": [ [ [ -65.2, -31.9 ], [ -65.15, -31.875 ], [ -65.15, -31.825 ], [ -65.2, -31.8 ], [ -65.25, -31.825 ], [ -65.25, -31.875 ], [ -65.2, -31.9 ] ] ] } },
    { "type": "Feature", "properties": { "id": 26, "nombre": "Capital (Centro)" }, "geometry": { "type": "Polygon", "coordinates": [ [ [ -64.2, -31.4 ], [ -64.15, -31.375 ], [ -64.15, -31.325 ], [ -64.2, -31.3 ], [ -64.25, -31.325 ], [ -64.25, -31.375 ], [ -64.2, -31.4 ] ] ] } },
    { "type": "Feature", "properties": { "id": 27, "nombre": "Reserva Chancaní" }, "geometry": { "type": "Polygon", "coordinates": [ [ [ -65.5, -31.25 ], [ -65.45, -31.225 ], [ -65.45, -31.175 ], [ -65.5, -31.15 ], [ -65.55, -31.175 ], [ -65.55, -31.225 ], [ -65.5, -31.25 ] ] ] } },
    { "type": "Feature", "properties": { "id": 28, "nombre": "Salinas Grandes" }, "geometry": { "type": "Polygon", "coordinates": [ [ [ -65.0, -30.0 ], [ -64.95, -29.975 ], [ -64.95, -29.925 ], [ -65.0, -29.9 ], [ -65.05, -29.925 ], [ -65.05, -29.975 ], [ -65.0, -30.0 ] ] ] } },
    { "type": "Feature", "properties": { "id": 29, "nombre": "Sierras de Pocho" }, "geometry": { "type": "Polygon", "coordinates": [ [ [ -65.2, -31.5 ], [ -65.15, -31.475 ], [ -65.15, -31.425 ], [ -65.2, -31.4 ], [ -65.25, -31.425 ], [ -65.25, -31.475 ], [ -65.2, -31.5 ] ] ] } },
    { "type": "Feature", "properties": { "id": 30, "nombre": "Río Tercero" }, "geometry": { "type": "Polygon", "coordinates": [ [ [ -64.1, -32.2 ], [ -64.05, -32.175 ], [ -64.05, -32.125 ], [ -64.1, -32.1 ], [ -64.15, -32.125 ], [ -64.15, -32.175 ], [ -64.1, -32.2 ] ] ] } },
    { "type": "Feature", "properties": { "id": 31, "nombre": "Arroyito" }, "geometry": { "type": "Polygon", "coordinates": [ [ [ -63.0, -31.4 ], [ -62.95, -31.375 ], [ -62.95, -31.325 ], [ -63.0, -31.3 ], [ -63.05, -31.325 ], [ -63.05, -31.375 ], [ -63.0, -31.4 ] ] ] } },
    { "type": "Feature", "properties": { "id": 32, "nombre": "Bell Ville" }, "geometry": { "type": "Polygon", "coordinates": [ [ [ -62.7, -32.6 ], [ -62.65, -32.575 ], [ -62.65, -32.525 ], [ -62.7, -32.5 ], [ -62.75, -32.525 ], [ -62.75, -32.575 ], [ -62.7, -32.6 ] ] ] } },
    { "type": "Feature", "properties": { "id": 33, "nombre": "Marcos Juárez" }, "geometry": { "type": "Polygon", "coordinates": [ [ [ -62.1, -32.7 ], [ -62.05, -32.675 ], [ -62.05, -32.625 ], [ -62.1, -32.6 ], [ -62.15, -32.625 ], [ -62.15, -32.675 ], [ -62.1, -32.7 ] ] ] } },
    { "type": "Feature", "properties": { "id": 34, "nombre": "La Carlota" }, "geometry": { "type": "Polygon", "coordinates": [ [ [ -63.3, -33.4 ], [ -63.25, -33.375 ], [ -63.25, -33.325 ], [ -63.3, -33.3 ], [ -63.35, -33.325 ], [ -63.35, -33.375 ], [ -63.3, -33.4 ] ] ] } },
    { "type": "Feature", "properties": { "id": 35, "nombre": "Capital (Norte)" }, "geometry": { "type": "Polygon", "coordinates": [ [ [ -64.2, -31.3 ], [ -64.15, -31.275 ], [ -64.15, -31.225 ], [ -64.2, -31.2 ], [ -64.25, -31.225 ], [ -64.25, -31.275 ], [ -64.2, -31.3 ] ] ] } },
    { "type": "Feature", "properties": { "id": 36, "nombre": "Capital (Sur)" }, "geometry": { "type": "Polygon", "coordinates": [ [ [ -64.2, -31.5 ], [ -64.15, -31.475 ], [ -64.15, -31.425 ], [ -64.2, -31.4 ], [ -64.25, -31.425 ], [ -64.25, -31.475 ], [ -64.2, -31.5 ] ] ] } },
    { "type": "Feature", "properties": { "id": 37, "nombre": "Este de Calamuchita" }, "geometry": { "type": "Polygon", "coordinates": [ [ [ -64.2, -32.0 ], [ -64.15, -31.975 ], [ -64.15, -31.925 ], [ -64.2, -31.9 ], [ -64.25, -31.925 ], [ -64.25, -31.975 ], [ -64.2, -32.0 ] ] ] } },
    { "type": "Feature", "properties": { "id": 38, "nombre": "Sierras del Sur" }, "geometry": { "type": "Polygon", "coordinates": [ [ [ -64.8, -32.8 ], [ -64.75, -32.775 ], [ -64.75, -32.725 ], [ -64.8, -32.7 ], [ -64.85, -32.725 ], [ -64.85, -32.775 ], [ -64.8, -32.8 ] ] ] } },
    { "type": "Feature", "properties": { "id": 39, "nombre": "Noroeste (San Carlos Minas)" }, "geometry": { "type": "Polygon", "coordinates": [ [ [ -65.0, -31.2 ], [ -64.95, -31.175 ], [ -64.95, -31.125 ], [ -65.0, -31.1 ], [ -65.05, -31.125 ], [ -65.05, -31.175 ], [ -65.0, -31.2 ] ] ] } },
    { "type": "Feature", "properties": { "id": 40, "nombre": "Extremo Sur" }, "geometry": { "type": "Polygon", "coordinates": [ [ [ -63.8, -34.5 ], [ -63.75, -34.475 ], [ -63.75, -34.425 ], [ -63.8, -34.4 ], [ -63.85, -34.425 ], [ -63.85, -34.475 ], [ -63.8, -34.5 ] ] ] } }
  ]
}

